start=new Date('2022-01-28T00:00:00.000Z').valueOf();
sats=[{"RA_OF_ASC_NODE":"24.3248","MEAN_MOTION_DDOT":"0.0000000000000","DECAY_DATE":null,"EPOCH":"2022-01-27T16:47:50.750016","MEAN_ELEMENT_THEORY":"SGP4","PERIAPSIS":"546.203","MEAN_MOTION":"15.06393404","MEAN_MOTION_DOT":"0.00000852","RCS_SIZE":"LARGE","REV_AT_EPOCH":"3822","INCLINATION":"53.0550","BSTAR":"0.00007612200000","OBJECT_NAME":"STARLINK-2647","APOAPSIS":"548.265","SEMIMAJOR_AXIS":"6925.369","GP_ID":"194749657","CLASSIFICATION_TYPE":"U","LAUNCH_DATE":"2021-05-26","ECCENTRICITY":"0.00014890","TLE_LINE2":"2 48658  53.0550  24.3248 0001489  61.4660 298.6479 15.06393404 38224","CENTER_NAME":"EARTH","NORAD_CAT_ID":"48658","MEAN_ANOMALY":"298.6479","OBJECT_TYPE":"PAYLOAD","TIME_SYSTEM":"UTC","OBJECT_ID":"2021-044W","REF_FRAME":"TEME","TLE_LINE1":"1 48658U 21044W   22027.69989294  .00000852  00000-0  76122-4 0  9998","PERIOD":"95.593","SITE":"AFETR","ARG_OF_PERICENTER":"61.4660","COUNTRY_CODE":"US","ELEMENT_SET_NO":"999","EPHEMERIS_TYPE":"0","FILE":"3285122"},{"MEAN_MOTION_DOT":"0.00000909","PERIAPSIS":"546.073","MEAN_MOTION":"15.06394181","MEAN_ELEMENT_THEORY":"SGP4","EPOCH":"2022-01-27T16:42:31.746528","DECAY_DATE":null,"RA_OF_ASC_NODE":"24.3378","MEAN_MOTION_DDOT":"0.0000000000000","GP_ID":"194755049","APOAPSIS":"548.389","OBJECT_NAME":"STARLINK-2717","SEMIMAJOR_AXIS":"6925.366","BSTAR":"0.00007993400000","INCLINATION":"53.0573","RCS_SIZE":"LARGE","REV_AT_EPOCH":"3816","REF_FRAME":"TEME","TIME_SYSTEM":"UTC","OBJECT_ID":"2021-044X","OBJECT_TYPE":"PAYLOAD","NORAD_CAT_ID":"48659","MEAN_ANOMALY":"287.3360","CENTER_NAME":"EARTH","TLE_LINE2":"2 48659  53.0573  24.3378 0001672  72.7812 287.3360 15.06394181 38162","LAUNCH_DATE":"2021-05-26","CLASSIFICATION_TYPE":"U","ECCENTRICITY":"0.00016720","FILE":"3285341","EPHEMERIS_TYPE":"0","ELEMENT_SET_NO":"999","SITE":"AFETR","ARG_OF_PERICENTER":"72.7812","COUNTRY_CODE":"US","TLE_LINE1":"1 48659U 21044X   22027.69620077  .00000909  00000-0  79934-4 0  9997","PERIOD":"95.593"},{"REV_AT_EPOCH":"3729","RCS_SIZE":"LARGE","INCLINATION":"53.0557","BSTAR":"0.00043116000000","SEMIMAJOR_AXIS":"6925.298","APOAPSIS":"548.367","OBJECT_NAME":"STARLINK-2688","GP_ID":"194743398","MEAN_MOTION_DDOT":"0.0000000000000","RA_OF_ASC_NODE":"25.2403","DECAY_DATE":null,"EPOCH":"2022-01-27T11:50:35.847744","MEAN_ELEMENT_THEORY":"SGP4","MEAN_MOTION":"15.06416475","PERIAPSIS":"545.959","MEAN_MOTION_DOT":"0.00006149","TLE_LINE1":"1 48660U 21044Y   22027.49347046  .00006149  00000-0  43116-3 0  9993","PERIOD":"95.591","ARG_OF_PERICENTER":"74.6472","COUNTRY_CODE":"US","SITE":"AFETR","ELEMENT_SET_NO":"999","EPHEMERIS_TYPE":"0","FILE":"3284946","CLASSIFICATION_TYPE":"U","LAUNCH_DATE":"2021-05-26","ECCENTRICITY":"0.00017380","TLE_LINE2":"2 48660  53.0557  25.2403 0001738  74.6472 285.4709 15.06416475 37291","CENTER_NAME":"EARTH","MEAN_ANOMALY":"285.4709","NORAD_CAT_ID":"48660","OBJECT_TYPE":"PAYLOAD","OBJECT_ID":"2021-044Y","TIME_SYSTEM":"UTC","REF_FRAME":"TEME"},{"INCLINATION":"53.0573","BSTAR":"0.00039932000000","REV_AT_EPOCH":"3836","RCS_SIZE":"LARGE","SEMIMAJOR_AXIS":"6925.303","APOAPSIS":"548.273","OBJECT_NAME":"STARLINK-2708","GP_ID":"194747347","EPOCH":"2022-01-27T16:38:32.482464","MEAN_MOTION_DDOT":"0.0000000000000","RA_OF_ASC_NODE":"14.3353","DECAY_DATE":null,"MEAN_MOTION_DOT":"0.00005674","MEAN_ELEMENT_THEORY":"SGP4","MEAN_MOTION":"15.06414823","PERIAPSIS":"546.063","COUNTRY_CODE":"US","ARG_OF_PERICENTER":"65.4656","SITE":"AFETR","ELEMENT_SET_NO":"999","TLE_LINE1":"1 48661U 21044Z   22027.69343151  .00005674  00000-0  39932-3 0  9992","PERIOD":"95.591","FILE":"3285052","EPHEMERIS_TYPE":"0","TLE_LINE2":"2 48661  53.0573  14.3353 0001596  65.4656 294.6499 15.06414823 38369","CENTER_NAME":"EARTH","CLASSIFICATION_TYPE":"U","LAUNCH_DATE":"2021-05-26","ECCENTRICITY":"0.00015960","OBJECT_ID":"2021-044Z","TIME_SYSTEM":"UTC","REF_FRAME":"TEME","MEAN_ANOMALY":"294.6499","NORAD_CAT_ID":"48661","OBJECT_TYPE":"PAYLOAD"},{"TLE_LINE2":"2 48662  53.0579  14.3635 0001496  69.8012 290.3138 15.06397673 38302","CENTER_NAME":"EARTH","LAUNCH_DATE":"2021-05-26","CLASSIFICATION_TYPE":"U","ECCENTRICITY":"0.00014960","TIME_SYSTEM":"UTC","OBJECT_ID":"2021-044AA","REF_FRAME":"TEME","NORAD_CAT_ID":"48662","MEAN_ANOMALY":"290.3138","OBJECT_TYPE":"PAYLOAD","SITE":"AFETR","COUNTRY_CODE":"US","ARG_OF_PERICENTER":"69.8012","ELEMENT_SET_NO":"999","PERIOD":"95.592","TLE_LINE1":"1 48662U 21044AA  22027.68974700  .00000769  00000-0  70539-4 0  9991","EPHEMERIS_TYPE":"0","FILE":"3285064","EPOCH":"2022-01-27T16:33:14.140800","RA_OF_ASC_NODE":"14.3635","MEAN_MOTION_DDOT":"0.0000000000000","DECAY_DATE":null,"MEAN_MOTION_DOT":"0.00000769","MEAN_ELEMENT_THEORY":"SGP4","PERIAPSIS":"546.185","MEAN_MOTION":"15.06397673","INCLINATION":"53.0579","BSTAR":"0.00007053900000","RCS_SIZE":"LARGE","REV_AT_EPOCH":"3830","OBJECT_NAME":"STARLINK-2726","APOAPSIS":"548.257","SEMIMAJOR_AXIS":"6925.356","GP_ID":"194747779"},{"SEMIMAJOR_AXIS":"6925.328","OBJECT_NAME":"STARLINK-2667","APOAPSIS":"548.326","GP_ID":"194744143","REV_AT_EPOCH":"3741","RCS_SIZE":"LARGE","INCLINATION":"53.0566","BSTAR":"0.00010413000000","MEAN_ELEMENT_THEORY":"SGP4","MEAN_MOTION":"15.06406789","PERIAPSIS":"546.059","MEAN_MOTION_DOT":"0.00001270","MEAN_MOTION_DDOT":"0.0000000000000","RA_OF_ASC_NODE":"15.8544","DECAY_DATE":null,"EPOCH":"2022-01-27T08:30:13.619520","EPHEMERIS_TYPE":"0","FILE":"3284946","TLE_LINE1":"1 48663U 21044AB  22027.35432430  .00001270  00000-0  10413-3 0  9997","PERIOD":"95.592","ARG_OF_PERICENTER":"65.6520","COUNTRY_CODE":"US","SITE":"AFETR","ELEMENT_SET_NO":"999","MEAN_ANOMALY":"294.4640","NORAD_CAT_ID":"48663","OBJECT_TYPE":"PAYLOAD","OBJECT_ID":"2021-044AB","TIME_SYSTEM":"UTC","REF_FRAME":"TEME","CLASSIFICATION_TYPE":"U","LAUNCH_DATE":"2021-05-26","ECCENTRICITY":"0.00016370","TLE_LINE2":"2 48663  53.0566  15.8544 0001637  65.6520 294.4640 15.06406789 37412","CENTER_NAME":"EARTH"},{"MEAN_MOTION_DOT":"-0.00000140","MEAN_ELEMENT_THEORY":"SGP4","MEAN_MOTION":"15.06397654","PERIAPSIS":"546.147","EPOCH":"2022-01-27T16:22:37.238016","MEAN_MOTION_DDOT":"0.0000000000000","RA_OF_ASC_NODE":"14.3951","DECAY_DATE":null,"SEMIMAJOR_AXIS":"6925.356","OBJECT_NAME":"STARLINK-2709","APOAPSIS":"548.295","GP_ID":"194749192","INCLINATION":"53.0569","BSTAR":"0.00000951650000","REV_AT_EPOCH":"3836","RCS_SIZE":"LARGE","OBJECT_ID":"2021-044AC","TIME_SYSTEM":"UTC","REF_FRAME":"TEME","MEAN_ANOMALY":"296.4619","NORAD_CAT_ID":"48664","OBJECT_TYPE":"PAYLOAD","TLE_LINE2":"2 48664  53.0569  14.3951 0001551  63.6529 296.4619 15.06397654 38367","CENTER_NAME":"EARTH","CLASSIFICATION_TYPE":"U","LAUNCH_DATE":"2021-05-26","ECCENTRICITY":"0.00015510","FILE":"3285151","EPHEMERIS_TYPE":"0","COUNTRY_CODE":"US","ARG_OF_PERICENTER":"63.6529","SITE":"AFETR","ELEMENT_SET_NO":"999","TLE_LINE1":"1 48664U 21044AC  22027.68237544 -.00000140  00000-0  95165-5 0  9998","PERIOD":"95.592"},{"RCS_SIZE":"LARGE","REV_AT_EPOCH":"3836","INCLINATION":"53.0576","BSTAR":"0.00010202000000","OBJECT_NAME":"STARLINK-2653","APOAPSIS":"548.440","SEMIMAJOR_AXIS":"6925.353","GP_ID":"194747380","MEAN_MOTION_DDOT":"0.0000000000000","RA_OF_ASC_NODE":"14.3322","DECAY_DATE":null,"EPOCH":"2022-01-27T16:42:29.463840","MEAN_ELEMENT_THEORY":"SGP4","PERIAPSIS":"545.996","MEAN_MOTION":"15.06398547","MEAN_MOTION_DOT":"0.00001238","TLE_LINE1":"1 48665U 21044AD  22027.69617435  .00001238  00000-0  10202-3 0  9996","PERIOD":"95.592","SITE":"AFETR","COUNTRY_CODE":"US","ARG_OF_PERICENTER":"62.5548","ELEMENT_SET_NO":"999","FILE":"3285053","EPHEMERIS_TYPE":"0","ECCENTRICITY":"0.00017640","LAUNCH_DATE":"2021-05-26","CLASSIFICATION_TYPE":"U","TLE_LINE2":"2 48665  53.0576  14.3322 0001764  62.5548 297.5620 15.06398547 38369","CENTER_NAME":"EARTH","NORAD_CAT_ID":"48665","MEAN_ANOMALY":"297.5620","OBJECT_TYPE":"PAYLOAD","TIME_SYSTEM":"UTC","OBJECT_ID":"2021-044AD","REF_FRAME":"TEME"},{"CLASSIFICATION_TYPE":"U","LAUNCH_DATE":"2021-05-26","ECCENTRICITY":"0.00016910","TLE_LINE2":"2 48666  53.0558  15.9608 0001691  61.2235 298.8924 15.06399758 37402","CENTER_NAME":"EARTH","MEAN_ANOMALY":"298.8924","NORAD_CAT_ID":"48666","OBJECT_TYPE":"PAYLOAD","OBJECT_ID":"2021-044AE","TIME_SYSTEM":"UTC","REF_FRAME":"TEME","TLE_LINE1":"1 48666U 21044AE  22027.33126501  .00001456  00000-0  11661-3 0  9999","PERIOD":"95.592","ARG_OF_PERICENTER":"61.2235","COUNTRY_CODE":"US","SITE":"AFETR","ELEMENT_SET_NO":"999","EPHEMERIS_TYPE":"0","FILE":"3284946","MEAN_MOTION_DDOT":"0.0000000000000","RA_OF_ASC_NODE":"15.9608","DECAY_DATE":null,"EPOCH":"2022-01-27T07:57:01.296864","MEAN_ELEMENT_THEORY":"SGP4","MEAN_MOTION":"15.06399758","PERIAPSIS":"546.043","MEAN_MOTION_DOT":"0.00001456","REV_AT_EPOCH":"3740","RCS_SIZE":"LARGE","INCLINATION":"53.0558","BSTAR":"0.00011661000000","SEMIMAJOR_AXIS":"6925.349","APOAPSIS":"548.385","OBJECT_NAME":"STARLINK-2666","GP_ID":"194744400"},{"BSTAR":"0.00005676100000","INCLINATION":"53.0569","RCS_SIZE":"LARGE","REV_AT_EPOCH":"3830","GP_ID":"194755107","OBJECT_NAME":"STARLINK-2735","APOAPSIS":"548.250","SEMIMAJOR_AXIS":"6925.360","EPOCH":"2022-01-27T16:17:18.777984","DECAY_DATE":null,"RA_OF_ASC_NODE":"14.3988","MEAN_MOTION_DDOT":"0.0000000000000","MEAN_MOTION_DOT":"0.00000564","PERIAPSIS":"546.200","MEAN_MOTION":"15.06396304","MEAN_ELEMENT_THEORY":"SGP4","ELEMENT_SET_NO":"999","SITE":"AFETR","COUNTRY_CODE":"US","ARG_OF_PERICENTER":"61.5682","TLE_LINE1":"1 48667U 21044AF  22027.67868956  .00000564  00000-0  56761-4 0  9994","PERIOD":"95.592","EPHEMERIS_TYPE":"0","FILE":"3285346","CENTER_NAME":"EARTH","TLE_LINE2":"2 48667  53.0569  14.3988 0001480  61.5682 298.5456 15.06396304 38305","CLASSIFICATION_TYPE":"U","LAUNCH_DATE":"2021-05-26","ECCENTRICITY":"0.00014800","REF_FRAME":"TEME","TIME_SYSTEM":"UTC","OBJECT_ID":"2021-044AF","OBJECT_TYPE":"PAYLOAD","NORAD_CAT_ID":"48667","MEAN_ANOMALY":"298.5456"}];
